spkid,ma,full_name,a,e,i,om,w,q,ad,per_y,data_arc,condition_code,n_obs_used,n_del_obs_used,n_dop_obs_used,H
3541752,51.655463481944,"       (2010 PO2)",1.42170357057727,.2899532789924155,16.63757207985691,308.7680923365252,45.85915536187212,1.009475958533165,1.833931182621374,1.69520327792479,34,6,79,,,23.2
3542518,344.1534290190879,"       (2010 PJ9)",1.946714044503692,.5672807761127908,1.147538231142812,147.4651525418154,227.953321729374,.8423805904679678,3.051047498539417,2.71619812699265,6,6,98,,,24.8
3542521,202.3813795556452,"       (2010 PM9)",2.240576519624647,.6944619149056274,4.00426120862479,259.269444647207,163.3647345017876,.6845814593135285,3.796571579935765,3.35388272737769,25,7,155,,,20.1
3544919,104.3732591682146,"       (2010 PM58)",1.371618722489076,.4597611530471072,13.59767167317451,332.4372788754071,53.73266831370789,.741001717096498,2.002235727881653,1.60641706540438,1271,1,28,,,20.9
3544920,353.472305822528,"       (2010 PP58)",1.991198130988582,.5046475102940329,4.54691873941297,175.9633902127323,175.7838070184702,.9863449516830627,2.996051310294102,2.80982916623236,8,9,14,,,22.1
3544981,27.30591117356598,"       (2010 PU66)",1.4857108521403,.3900244659275745,18.09432955470903,350.4259691036478,267.5513151806375,.9062472705114779,2.065174433769122,1.81096328516044,62,6,34,,,22.1
3545179,76.15624765656939,"       (2010 PY75)",2.659306260572295,.7739613124754038,31.28876815438648,270.2864751921892,135.7980280058893,.6011060968657035,4.717506424278887,4.33671354314997,20,7,78,,,18.7
3545238,293.3543486968186,"       (2010 QN1)",1.149184870410149,.4515843630693337,27.95912657090459,139.7845787375494,317.7225183443194,.6302309526570672,1.668138788163231,1.23194991451103,16,8,16,,,20.1
3545393,302.2589869120046,"       (2010 QE2)",3.373374851587015,.73892893386756,64.73746334987062,2.003919920951883,32.88413214261218,.8806905689681835,5.866059134205846,6.1959100855549,232,3,139,,,17.2
3545399,156.4951529937828,"       (2010 QG2)",1.665146594883986,.5153339892478048,4.703284940291702,342.8843236650268,64.56042739888765,.807039957460023,2.523253232307948,2.14875506137146,3,7,32,,,24.3
3545413,90.80134462935071,"       (2010 RB)",2.560378049211665,.6203635846842924,27.72936878647647,155.9401033640368,260.1115545160969,.9720127444557407,4.148743353967588,4.09698472820624,1433,0,54,,,20.1
3545416,120.2589428780808,"       (2010 RE)",1.034423580655602,.1855658753622798,8.00770573608844,159.3319138728714,73.57490042263967,.8424698634158616,1.226377297895343,1.05209709261765,4,6,18,,,27.5
3545480,341.7947323078256,"       (2010 RV3)",2.160721268621293,.8798652258816668,8.811818551188781,349.8606685539534,128.3597257925056,.2595777615384973,4.061864775704088,3.17618889169788,1,9,12,,,23.169
3545482,354.3191978434191,"       (2010 RX3)",2.638076674507919,.6195477695517564,3.89700175114857,172.6910948819156,202.2583032801921,1.003662154910023,4.272491194105815,4.28488650581936,7,8,26,,,25.0
3545483,353.7543807109322,"       (2010 RY3)",2.620252980124685,.6214944052703116,4.425592396939873,171.9804747594341,206.0741563246175,.9917804125843322,4.248725547665038,4.24153483032681,7,8,27,,,25.1
3545509,338.9166380214031,"       (2010 RW11)",1.664450837265874,.4095741762995462,37.63478810531191,160.0848749131012,231.0377635893163,.9827347566016134,2.346166917930133,2.14740846234253,1,9,23,,,24.6
3545510,40.98570406396714,"       (2010 RY11)",1.309924979778029,.3081542342623627,9.707725421256145,335.2099905067121,294.4040258343442,.9062660506933898,1.713583908862669,1.49926305205602,1,8,24,,,26.0
3545511,12.14182895331739,"       (2010 RZ11)",2.349638796093237,.6352798747719443,1.282886016673517,349.045016314807,292.4891469893045,.8569605559518234,3.84231703623465,3.60171926560185,5,8,19,,,26.6
3545513,158.7931628413595,"       (2010 RB12)",2.369280051451911,.6282948759177084,5.266184532701098,161.6970587862793,228.8968101773401,.8806735355106308,3.857886567393191,3.64697510727493,2,7,36,,,27.0
3545552,257.9274367955085,"       (2010 RF12)",1.060485055448234,.1882294267774088,.8826175191164269,163.8392679710969,267.5699999295485,.8608705613552041,1.260099549541263,1.09210659913615,3,3,312,,,28.1
3545631,93.36051622255466,"       (2010 RF31)",1.371575948145817,.2773848054221806,5.947320506583425,332.4611687618581,57.35066601292648,.9911216206476468,1.752030275643987,1.60634192108972,6,7,28,,,25.2
3545632,35.64315431780983,"       (2010 RG31)",1.099157667840152,.1914053556925377,13.07518543799791,343.9547772033007,187.6770810808966,.8887730034650272,1.309542332215276,1.15238658281481,7,7,28,,,22.6
3545711,268.3007195436696,"       (2010 RM42)",2.16547243651709,.5442849826831693,38.95853660651169,15.16046904726717,274.2690676566984,.9868383089065054,3.344106564127675,3.18667073830512,2250,1,178,,,18.6
3545715,187.9876945412718,"       (2010 RL43)",2.342908520656182,.6227223797991739,.6141014441870569,289.287514637368,2.454984462022773,.8839269510214024,3.801890090290962,3.58625527437535,23,7,96,,,24.3
3545815,9.090589384275715,"       (2010 RJ53)",1.065910099531687,.4073654596003542,28.46272609979945,167.9235079917163,69.74787957258721,.6316951419433023,1.500125057120073,1.10049751959612,4,7,57,,,24.0
3545901,176.6892576466871,"       (2010 RK53)",1.346803568349937,.3136215733119231,6.093183621405921,346.0962173524679,310.9715486931334,.9244169143019176,1.769190222397957,1.56302019671024,7,7,21,,,27.9
3545906,259.16583060071,"       (2010 RK64)",1.530112640261839,.3524099750030639,16.57178758754953,357.936307128757,54.80485491125844,.9908856829552921,2.069339597568385,1.89275022538766,916,1,62,,,21.0
3545907,275.7303157090674,"       (2010 RP64)",2.10088393062505,.5208508738338621,6.427310941018244,169.7267948934941,160.4645802678205,1.006636699535474,3.195131161714625,3.04516823638276,5,7,16,,,27.2
3545973,106.6553235540051,"       (2010 RM80)",1.176581619749222,.1996048629047129,2.364787826371707,345.0380724759347,304.30540974,.9417302068429736,1.41143303265547,1.27626627058128,8,6,53,,,27.9
3545975,311.9596062529127,"       (2010 RO80)",1.186801061067783,.2026900852968246,23.56025439560576,348.5887396609953,69.39206417658737,.9462482527695923,1.427353869365974,1.2929302340046,1,8,35,,,24.6
3545979,30.30018914018529,"       (2010 RS80)",1.461324038598249,.3694189461367344,9.044991199985301,348.4419176218295,310.8090549626987,.9214832522950075,2.001164824901491,1.76655838265284,7,6,51,,,26.5
3545981,100.7950271133345,"       (2010 RM82)",1.183127425424397,.4165138559980759,5.053990228156287,170.6177707056515,83.08653904453335,.6903384593238053,1.675916391524988,1.28693165862405,7,6,42,,,25.9
3546117,83.69255376217539,"       (2010 RO82)",2.505840873911456,.6092795812111881,18.11360611186005,21.37014256998487,66.44555382768556,.9790831956728064,4.032598552150104,3.96678292973203,1742,0,144,,,16.9
3546367,16.66547356708537,"       (2010 RA91)",1.167081797800035,.3492244496011206,5.61833845696943,183.6549985558314,272.6559675028567,.7595082993238318,1.574655296276239,1.26084048635125,21,6,83,,,23.3
3546699,342.4936972216224,"       (2010 RD130)",1.938743171147152,.533407888939275,2.407828439665769,332.8538186097894,81.2612276693327,.9046022690301139,2.972884073264189,2.69953289507127,3,9,15,,,25.4
3547804,206.610521811038,"       (2010 RA147)",2.158556092190879,.6555923719894435,5.815718767962291,8.337742522675027,116.7073041096151,.7434231836391966,3.573689000742561,3.17141598113674,1332,0,139,,,19.3
3552292,205.666919669221,"       (2010 RF181)",2.208253650477775,.5470711302790527,6.2486511663356,51.16572119676015,2.167109283734362,1.000181829968054,3.416325470987495,3.2815697362393,139,5,131,,,20.7
3546702,70.47450579233775,"       (2010 SD)",1.377136351112973,.4050427484365424,3.563413707819648,336.4409638339255,93.03498780352335,.8193372584863031,1.934935443739643,1.61612003964787,19,7,44,,,24.8
3546703,278.3123896428411,"       (2010 SE)",1.047816607246596,.2905257113902577,20.31044912940574,175.2454780600472,280.84233706116,.7433989420197523,1.35223427247344,1.07259586523561,3,6,39,,,24.3
3546743,18.15504438541471,"       (2010 SP3)",1.989913604682651,.6339589172363236,.4524187855957901,228.4688465817551,49.75403704864597,.7283901304642079,3.251437078901094,2.80711066428974,14,8,34,,,24.8
3546778,342.7009832789382,"       (2010 ST3)",2.115938517251909,.5450047027826825,3.793141409817427,171.5550568114427,242.5588918176647,.9627420745506022,3.269134959953215,3.07795856170452,2,9,10,,,25.1
3546795,16.71374777420801,"       (2010 SW3)",1.623608095996325,.4031764437840346,1.502379150439572,344.3234186539219,331.4271811286449,.9690075577535592,2.278208634239091,2.06885481565311,1,8,18,,,26.6
3547175,28.80812435279507,"       (2010 SX11)",1.158168890687382,.2491618069093479,5.158604265596464,182.4474633227933,267.1809352691284,.869597437177519,1.446740344197246,1.24642469562925,21,6,33,,,24.8
3547610,337.7125076322482,"       (2010 SJ13)",1.676118135624306,.5868939526149702,7.618410860774494,239.611832567532,205.7385831145036,.6924145379581224,2.65982173329049,2.17002701275173,2,9,44,,,21.0
3547611,124.5995473968567,"       (2010 SK13)",2.449965903384574,.7164512603622774,1.05099986606983,1.511653589943374,80.20661621028819,.6946847440600906,4.205247062709058,3.83484895306826,2,6,46,,,27.4
3547631,53.56005369345656,"       (2010 SJ15)",1.508199407151056,.5310898354069298,36.34410920898443,5.921368925478184,244.4981859811356,.7072100322463728,2.30918878205574,1.85223612790161,10,9,42,,,22.5
3547635,31.7627800701736,"       (2010 SV15)",1.320734114339033,.2699192883306711,11.88116350440907,184.7212065061035,127.863314491493,.9642425021226019,1.677225726555464,1.51785853094276,,9,11,,,26.7
3547675,329.7413123142015,"       (2010 SR16)",1.350909229152947,.3013490145283946,27.40707138755959,4.644870030226931,57.86826724027257,.9438140642303934,1.758004394075501,1.57017281986217,4,8,43,,,24.3
